SEEDS II (CO-66)        
1 32791U 08021J   26068.92109284  .00023758  00000+0  84213-3 0  9995
2 32791  97.7519  62.3611 0001448 359.2618   0.8619 15.29097235972108
STARLINK-33766          
1 63472U 25070N   26068.89394245  .00029098  00000+0  10628-2 0  9998
2 63472  43.0000 258.9945 0001886 280.8549  79.2090 15.27578942 53007
